CCSDS_OMM_VERS = 2.0
CREATION_DATE  = 
ORIGINATOR     = 

OBJECT_NAME    = ATLAS CENTAUR 2
OBJECT_ID      = 1963-047A
CENTER_NAME    = EARTH
REF_FRAME      = TEME
TIME_SYSTEM    = UTC
MEAN_ELEMENT_THEORY = SGP/SGP4

EPOCH          = 2026-03-08T15:04:53.664960
MEAN_MOTION    = 14.12064183
ECCENTRICITY   = .05477349
INCLINATION    = 30.3512
RA_OF_ASC_NODE = 201.5734
ARG_OF_PERICENTER = 70.9333
MEAN_ANOMALY   = 294.9758

EPHEMERIS_TYPE = 0
CLASSIFICATION_TYPE = U
NORAD_CAT_ID   = 694
ELEMENT_SET_NO = 999
REV_AT_EPOCH   = 13147
BSTAR          = .23412363E-3
MEAN_MOTION_DOT = .1993E-4
MEAN_MOTION_DDOT = 0

CCSDS_OMM_VERS = 2.0
CREATION_DATE  = 
ORIGINATOR     = 

OBJECT_NAME    = THOR AGENA D R/B
OBJECT_ID      = 1964-002A
CENTER_NAME    = EARTH
REF_FRAME      = TEME
TIME_SYSTEM    = UTC
MEAN_ELEMENT_THEORY = SGP/SGP4

EPOCH          = 2026-03-08T14:45:45.183456
MEAN_MOTION    = 14.34019456
ECCENTRICITY   = .00319402
INCLINATION    = 99.1226
RA_OF_ASC_NODE = 80.8940
ARG_OF_PERICENTER = 261.3601
MEAN_ANOMALY   = 98.3963

EPHEMERIS_TYPE = 0
CLASSIFICATION_TYPE = U
NORAD_CAT_ID   = 733
ELEMENT_SET_NO = 999
REV_AT_EPOCH   = 23814
BSTAR          = .12558694E-3
MEAN_MOTION_DOT = .304E-5
MEAN_MOTION_DDOT = 0

CCSDS_OMM_VERS = 2.0
CREATION_DATE  = 
ORIGINATOR     = 

OBJECT_NAME    = SL-3 R/B
OBJECT_ID      = 1964-053B
CENTER_NAME    = EARTH
REF_FRAME      = TEME
TIME_SYSTEM    = UTC
MEAN_ELEMENT_THEORY = SGP/SGP4

EPOCH          = 2026-03-08T04:28:20.861184
MEAN_MOTION    = 14.61367221
ECCENTRICITY   = .00797149
INCLINATION    = 65.0789
RA_OF_ASC_NODE = 335.6446
ARG_OF_PERICENTER = 292.7003
MEAN_ANOMALY   = 66.5683

EPHEMERIS_TYPE = 0
CLASSIFICATION_TYPE = U
NORAD_CAT_ID   = 877
ELEMENT_SET_NO = 999
REV_AT_EPOCH   = 26657
BSTAR          = .11483827E-3
MEAN_MOTION_DOT = .469E-5
MEAN_MOTION_DDOT = 0

CCSDS_OMM_VERS = 2.0
CREATION_DATE  = 
ORIGINATOR     = 

OBJECT_NAME    = SL-8 R/B
OBJECT_ID      = 1967-045B
CENTER_NAME    = EARTH
REF_FRAME      = TEME
TIME_SYSTEM    = UTC
MEAN_ELEMENT_THEORY = SGP/SGP4

EPOCH          = 2026-03-08T06:14:40.344288
MEAN_MOTION    = 14.45621699
ECCENTRICITY   = .00641482
INCLINATION    = 74.0140
RA_OF_ASC_NODE = 350.7585
ARG_OF_PERICENTER = 357.3686
MEAN_ANOMALY   = 2.7124

EPHEMERIS_TYPE = 0
CLASSIFICATION_TYPE = U
NORAD_CAT_ID   = 2802
ELEMENT_SET_NO = 999
REV_AT_EPOCH   = 8881
BSTAR          = .17905905E-3
MEAN_MOTION_DOT = .621E-5
MEAN_MOTION_DDOT = 0

CCSDS_OMM_VERS = 2.0
CREATION_DATE  = 
ORIGINATOR     = 

OBJECT_NAME    = SL-8 R/B
OBJECT_ID      = 1968-040B
CENTER_NAME    = EARTH
REF_FRAME      = TEME
TIME_SYSTEM    = UTC
MEAN_ELEMENT_THEORY = SGP/SGP4

EPOCH          = 2026-03-08T15:28:36.642720
MEAN_MOTION    = 15.03252122
ECCENTRICITY   = .00238611
INCLINATION    = 74.0323
RA_OF_ASC_NODE = 315.8296
ARG_OF_PERICENTER = 140.1289
MEAN_ANOMALY   = 220.1659

EPHEMERIS_TYPE = 0
CLASSIFICATION_TYPE = U
NORAD_CAT_ID   = 3230
ELEMENT_SET_NO = 999
REV_AT_EPOCH   = 8985
BSTAR          = .34577314E-3
MEAN_MOTION_DOT = .4673E-4
MEAN_MOTION_DDOT = 0

CCSDS_OMM_VERS = 2.0
CREATION_DATE  = 
ORIGINATOR     = 

OBJECT_NAME    = OAO 2
OBJECT_ID      = 1968-110A
CENTER_NAME    = EARTH
REF_FRAME      = TEME
TIME_SYSTEM    = UTC
MEAN_ELEMENT_THEORY = SGP/SGP4

EPOCH          = 2026-03-08T14:38:48.934176
MEAN_MOTION    = 14.47307443
ECCENTRICITY   = .00057347
INCLINATION    = 34.9928
RA_OF_ASC_NODE = 271.2505
ARG_OF_PERICENTER = 196.6753
MEAN_ANOMALY   = 163.3750

EPHEMERIS_TYPE = 0
CLASSIFICATION_TYPE = U
NORAD_CAT_ID   = 3597
ELEMENT_SET_NO = 999
REV_AT_EPOCH   = 1894
BSTAR          = .10782767E-3
MEAN_MOTION_DOT = .381E-5
MEAN_MOTION_DDOT = 0

CCSDS_OMM_VERS = 2.0
CREATION_DATE  = 
ORIGINATOR     = 

OBJECT_NAME    = ISIS 1
OBJECT_ID      = 1969-009A
CENTER_NAME    = EARTH
REF_FRAME      = TEME
TIME_SYSTEM    = UTC
MEAN_ELEMENT_THEORY = SGP/SGP4

EPOCH          = 2026-03-08T07:17:29.992704
MEAN_MOTION    = 11.30413826
ECCENTRICITY   = .17077974
INCLINATION    = 88.4544
RA_OF_ASC_NODE = 155.4598
ARG_OF_PERICENTER = 91.9571
MEAN_ANOMALY   = 287.6959

EPHEMERIS_TYPE = 0
CLASSIFICATION_TYPE = U
NORAD_CAT_ID   = 3669
ELEMENT_SET_NO = 999
REV_AT_EPOCH   = 34837
BSTAR          = .13992734E-3
MEAN_MOTION_DOT = .22E-5
MEAN_MOTION_DDOT = 0

CCSDS_OMM_VERS = 2.0
CREATION_DATE  = 
ORIGINATOR     = 

OBJECT_NAME    = SERT 2
OBJECT_ID      = 1970-009A
CENTER_NAME    = EARTH
REF_FRAME      = TEME
TIME_SYSTEM    = UTC
MEAN_ELEMENT_THEORY = SGP/SGP4

EPOCH          = 2026-03-08T14:48:17.025408
MEAN_MOTION    = 13.58729698
ECCENTRICITY   = .00050065
INCLINATION    = 99.2756
RA_OF_ASC_NODE = 10.7691
ARG_OF_PERICENTER = 158.2284
MEAN_ANOMALY   = 14.8533

EPHEMERIS_TYPE = 0
CLASSIFICATION_TYPE = U
NORAD_CAT_ID   = 4327
ELEMENT_SET_NO = 999
REV_AT_EPOCH   = 77974
BSTAR          = .84128501E-4
MEAN_MOTION_DOT = .2E-6
MEAN_MOTION_DDOT = 0

CCSDS_OMM_VERS = 2.0
CREATION_DATE  = 
ORIGINATOR     = 

OBJECT_NAME    = SL-3 R/B
OBJECT_ID      = 1971-028B
CENTER_NAME    = EARTH
REF_FRAME      = TEME
TIME_SYSTEM    = UTC
MEAN_ELEMENT_THEORY = SGP/SGP4

EPOCH          = 2026-03-08T13:35:53.983392
MEAN_MOTION    = 15.61017440
ECCENTRICITY   = .00134724
INCLINATION    = 81.2356
RA_OF_ASC_NODE = 53.4160
ARG_OF_PERICENTER = 290.1453
MEAN_ANOMALY   = 69.8351

EPHEMERIS_TYPE = 0
CLASSIFICATION_TYPE = U
NORAD_CAT_ID   = 5118
ELEMENT_SET_NO = 999
REV_AT_EPOCH   = 98849
BSTAR          = .59912891E-3
MEAN_MOTION_DOT = .50772E-3
MEAN_MOTION_DDOT = 0

CCSDS_OMM_VERS = 2.0
CREATION_DATE  = 
ORIGINATOR     = 

OBJECT_NAME    = ASTEX 1
OBJECT_ID      = 1971-089A
CENTER_NAME    = EARTH
REF_FRAME      = TEME
TIME_SYSTEM    = UTC
MEAN_ELEMENT_THEORY = SGP/SGP4

EPOCH          = 2026-03-08T05:39:41.855904
MEAN_MOTION    = 14.50768453
ECCENTRICITY   = .00178594
INCLINATION    = 92.7123
RA_OF_ASC_NODE = 151.2897
ARG_OF_PERICENTER = 90.1769
MEAN_ANOMALY   = 270.1483

EPHEMERIS_TYPE = 0
CLASSIFICATION_TYPE = U
NORAD_CAT_ID   = 5560
ELEMENT_SET_NO = 999
REV_AT_EPOCH   = 86209
BSTAR          = .17473976E-3
MEAN_MOTION_DOT = .688E-5
MEAN_MOTION_DDOT = 0

CCSDS_OMM_VERS = 2.0
CREATION_DATE  = 
ORIGINATOR     = 

OBJECT_NAME    = SL-8 R/B
OBJECT_ID      = 1971-119B
CENTER_NAME    = EARTH
REF_FRAME      = TEME
TIME_SYSTEM    = UTC
MEAN_ELEMENT_THEORY = SGP/SGP4

EPOCH          = 2026-03-08T11:23:25.652544
MEAN_MOTION    = 14.37824422
ECCENTRICITY   = .05490132
INCLINATION    = 73.8875
RA_OF_ASC_NODE = 177.9897
ARG_OF_PERICENTER = 144.8830
MEAN_ANOMALY   = 218.9851

EPHEMERIS_TYPE = 0
CLASSIFICATION_TYPE = U
NORAD_CAT_ID   = 5730
ELEMENT_SET_NO = 999
REV_AT_EPOCH   = 65531
BSTAR          = .85085273E-3
MEAN_MOTION_DOT = .16373E-3
MEAN_MOTION_DDOT = 0

CCSDS_OMM_VERS = 2.0
CREATION_DATE  = 
ORIGINATOR     = 

OBJECT_NAME    = OAO 3 (COPERNICUS)
OBJECT_ID      = 1972-065A
CENTER_NAME    = EARTH
REF_FRAME      = TEME
TIME_SYSTEM    = UTC
MEAN_ELEMENT_THEORY = SGP/SGP4

EPOCH          = 2026-03-08T01:04:50.407104
MEAN_MOTION    = 14.59996877
ECCENTRICITY   = .00062825
INCLINATION    = 35.0061
RA_OF_ASC_NODE = 306.6868
ARG_OF_PERICENTER = 153.2580
MEAN_ANOMALY   = 6.0269

EPHEMERIS_TYPE = 0
CLASSIFICATION_TYPE = U
NORAD_CAT_ID   = 6153
ELEMENT_SET_NO = 999
REV_AT_EPOCH   = 84595
BSTAR          = .11419369E-3
MEAN_MOTION_DOT = .535E-5
MEAN_MOTION_DDOT = 0

