ATLAS CENTAUR 2         
1 00694U 63047A   26067.62839890  .00001993  00000+0  23412-3 0  9991
2 00694  30.3512 201.5734 0547734  70.9333 294.9758 14.12064183131472
THOR AGENA D R/B        
1 00733U 64002A   26067.61510629  .00000304  00000+0  12559-3 0  9997
2 00733  99.1226  80.8940 0031940 261.3601  98.3963 14.34019456238142
SL-3 R/B                
1 00877U 64053B   26067.18635256  .00000469  00000+0  11484-3 0  9996
2 00877  65.0789 335.6446 0079714 292.7003  66.5683 14.61367221266574
SL-8 R/B                
1 02802U 67045B   26067.26018917  .00000621  00000+0  17906-3 0  9993
2 02802  74.0140 350.7585 0064148 357.3686   2.7124 14.45621699 88812
SL-8 R/B                
1 03230U 68040B   26067.64486855  .00004673  00000+0  34577-3 0  9991
2 03230  74.0323 315.8296 0023861 140.1289 220.1659 15.03252122 89856
OAO 2                   
1 03597U 68110A   26067.61028859  .00000381  00000+0  10783-3 0  9993
2 03597  34.9928 271.2505 0005734 196.6753 163.3750 14.47307443 18943
ISIS 1                  
1 03669U 69009A   26067.30381936  .00000220  00000+0  13993-3 0  9993
2 03669  88.4544 155.4598 1707797  91.9571 287.6959 11.30413826348376
SERT 2                  
1 04327U 70009A   26067.61686372  .00000020  00000+0  84129-4 0  9991
2 04327  99.2756  10.7691 0005006 158.2284  14.8533 13.58729698779747
SL-3 R/B                
1 05118U 71028B   26067.56659703  .00050772  00000+0  59913-3 0  9995
2 05118  81.2356  53.4160 0013472 290.1453  69.8351 15.61017440988491
ASTEX 1                 
1 05560U 71089A   26067.23590111  .00000688  00000+0  17474-3 0  9991
2 05560  92.7123 151.2897 0017859  90.1769 270.1483 14.50768453862090
SL-8 R/B                
1 05730U 71119B   26067.47460246  .00016373  00000+0  85085-3 0  9996
2 05730  73.8875 177.9897 0549013 144.8830 218.9851 14.37824422655314
OAO 3 (COPERNICUS)      
1 06153U 72065A   26067.04502786  .00000535  00000+0  11419-3 0  9999
2 06153  35.0061 306.6868 0006282 153.2580   6.0269 14.59996877845950
